{
  "type": "FeatureCollection",
  "features": [
    {
      "type": "Feature",
      "properties": {
        "OBJECT_NAME": "COSMOS 2407",
        "OBJECT_ID": "2004-028A",
        "EPOCH": "2025-11-29T15:43:08.503392",
        "MEAN_MOTION": 13.7631132,
        "ECCENTRICITY": 0.0040574,
        "INCLINATION": 82.9616,
        "RA_OF_ASC_NODE": 222.5794,
        "ARG_OF_PERICENTER": 90.2867,
        "MEAN_ANOMALY": 333.3851,
        "EPHEMERIS_TYPE": 0,
        "CLASSIFICATION_TYPE": "U",
        "NORAD_CAT_ID": 28380,
        "ELEMENT_SET_NO": 999,
        "REV_AT_EPOCH": 7243,
        "BSTAR": 4.6722e-05,
        "MEAN_MOTION_DOT": 6.2e-07,
        "MEAN_MOTION_DDOT": 0,
        "norad_id": 28380,
        "name": "COSMOS 2407",
        "group": "musson",
        "longitude_deg": NaN,
        "latitude_deg": NaN,
        "alt_km": NaN,
        "orbit_class": "HEO",
        "timestamp": "2025-11-30T07:29:52.806344+00:00"
      },
      "geometry": {
        "type": "Point",
        "coordinates": [
          NaN,
          NaN
        ]
      }
    },
    {
      "type": "Feature",
      "properties": {
        "OBJECT_NAME": "COSMOS 2414",
        "OBJECT_ID": "2005-002A",
        "EPOCH": "2025-11-29T16:46:04.137600",
        "MEAN_MOTION": 13.87900288,
        "ECCENTRICITY": 0.004007,
        "INCLINATION": 82.9501,
        "RA_OF_ASC_NODE": 194.5204,
        "ARG_OF_PERICENTER": 176.4301,
        "MEAN_ANOMALY": 183.7156,
        "EPHEMERIS_TYPE": 0,
        "CLASSIFICATION_TYPE": "U",
        "NORAD_CAT_ID": 28521,
        "ELEMENT_SET_NO": 999,
        "REV_AT_EPOCH": 5614,
        "BSTAR": 5.6649e-05,
        "MEAN_MOTION_DOT": 8.4e-07,
        "MEAN_MOTION_DDOT": 0,
        "norad_id": 28521,
        "name": "COSMOS 2414",
        "group": "musson",
        "longitude_deg": NaN,
        "latitude_deg": NaN,
        "alt_km": NaN,
        "orbit_class": "HEO",
        "timestamp": "2025-11-30T07:29:52.806408+00:00"
      },
      "geometry": {
        "type": "Point",
        "coordinates": [
          NaN,
          NaN
        ]
      }
    },
    {
      "type": "Feature",
      "properties": {
        "OBJECT_NAME": "COSMOS 2463",
        "OBJECT_ID": "2010-017A",
        "EPOCH": "2025-11-29T16:41:19.472064",
        "MEAN_MOTION": 13.71647331,
        "ECCENTRICITY": 0.0035254,
        "INCLINATION": 82.9625,
        "RA_OF_ASC_NODE": 36.2973,
        "ARG_OF_PERICENTER": 325.3956,
        "MEAN_ANOMALY": 150.9924,
        "EPHEMERIS_TYPE": 0,
        "CLASSIFICATION_TYPE": "U",
        "NORAD_CAT_ID": 36519,
        "ELEMENT_SET_NO": 999,
        "REV_AT_EPOCH": 78058,
        "BSTAR": 3.8947e-05,
        "MEAN_MOTION_DOT": 5e-07,
        "MEAN_MOTION_DDOT": 0,
        "norad_id": 36519,
        "name": "COSMOS 2463",
        "group": "musson",
        "longitude_deg": NaN,
        "latitude_deg": NaN,
        "alt_km": NaN,
        "orbit_class": "HEO",
        "timestamp": "2025-11-30T07:29:52.807671+00:00"
      },
      "geometry": {
        "type": "Point",
        "coordinates": [
          NaN,
          NaN
        ]
      }
    },
    {
      "type": "Feature",
      "properties": {
        "OBJECT_NAME": "COSMOS 2361",
        "OBJECT_ID": "1998-076A",
        "EPOCH": "2025-11-29T19:22:32.702880",
        "MEAN_MOTION": 13.73215337,
        "ECCENTRICITY": 0.0030236,
        "INCLINATION": 82.9345,
        "RA_OF_ASC_NODE": 353.6522,
        "ARG_OF_PERICENTER": 303.1009,
        "MEAN_ANOMALY": 231.0478,
        "EPHEMERIS_TYPE": 0,
        "CLASSIFICATION_TYPE": "U",
        "NORAD_CAT_ID": 25590,
        "ELEMENT_SET_NO": 999,
        "REV_AT_EPOCH": 34933,
        "BSTAR": 5.2511e-05,
        "MEAN_MOTION_DOT": 6.4e-07,
        "MEAN_MOTION_DDOT": 0,
        "norad_id": 25590,
        "name": "COSMOS 2361",
        "group": "musson",
        "longitude_deg": NaN,
        "latitude_deg": NaN,
        "alt_km": NaN,
        "orbit_class": "HEO",
        "timestamp": "2025-11-30T07:29:52.897381+00:00"
      },
      "geometry": {
        "type": "Point",
        "coordinates": [
          NaN,
          NaN
        ]
      }
    },
    {
      "type": "Feature",
      "properties": {
        "OBJECT_NAME": "COSMOS 2378",
        "OBJECT_ID": "2001-023A",
        "EPOCH": "2025-11-29T13:41:02.040864",
        "MEAN_MOTION": 13.74140247,
        "ECCENTRICITY": 0.0031774,
        "INCLINATION": 82.9283,
        "RA_OF_ASC_NODE": 9.4902,
        "ARG_OF_PERICENTER": 242.5487,
        "MEAN_ANOMALY": 228.6789,
        "EPHEMERIS_TYPE": 0,
        "CLASSIFICATION_TYPE": "U",
        "NORAD_CAT_ID": 26818,
        "ELEMENT_SET_NO": 999,
        "REV_AT_EPOCH": 22742,
        "BSTAR": 4.5614e-05,
        "MEAN_MOTION_DOT": 5.8e-07,
        "MEAN_MOTION_DDOT": 0,
        "norad_id": 26818,
        "name": "COSMOS 2378",
        "group": "musson",
        "longitude_deg": NaN,
        "latitude_deg": NaN,
        "alt_km": NaN,
        "orbit_class": "HEO",
        "timestamp": "2025-11-30T07:29:52.897390+00:00"
      },
      "geometry": {
        "type": "Point",
        "coordinates": [
          NaN,
          NaN
        ]
      }
    },
    {
      "type": "Feature",
      "properties": {
        "OBJECT_NAME": "COSMOS 2389",
        "OBJECT_ID": "2002-026A",
        "EPOCH": "2025-11-29T16:42:22.417920",
        "MEAN_MOTION": 13.75152581,
        "ECCENTRICITY": 0.0047791,
        "INCLINATION": 82.9492,
        "RA_OF_ASC_NODE": 316.6422,
        "ARG_OF_PERICENTER": 96.1386,
        "MEAN_ANOMALY": 77.1624,
        "EPHEMERIS_TYPE": 0,
        "CLASSIFICATION_TYPE": "U",
        "NORAD_CAT_ID": 27436,
        "ELEMENT_SET_NO": 999,
        "REV_AT_EPOCH": 17969,
        "BSTAR": 6.7731e-05,
        "MEAN_MOTION_DOT": 8.1e-07,
        "MEAN_MOTION_DDOT": 0,
        "norad_id": 27436,
        "name": "COSMOS 2389",
        "group": "musson",
        "longitude_deg": NaN,
        "latitude_deg": NaN,
        "alt_km": NaN,
        "orbit_class": "HEO",
        "timestamp": "2025-11-30T07:29:52.897396+00:00"
      },
      "geometry": {
        "type": "Point",
        "coordinates": [
          NaN,
          NaN
        ]
      }
    },
    {
      "type": "Feature",
      "properties": {
        "OBJECT_NAME": "COSMOS 2398",
        "OBJECT_ID": "2003-023A",
        "EPOCH": "2025-11-29T07:30:47.570112",
        "MEAN_MOTION": 13.72383843,
        "ECCENTRICITY": 0.00320187,
        "INCLINATION": 82.9471,
        "RA_OF_ASC_NODE": 282.5935,
        "ARG_OF_PERICENTER": 147.9184,
        "MEAN_ANOMALY": 16.5095,
        "EPHEMERIS_TYPE": 0,
        "CLASSIFICATION_TYPE": "U",
        "NORAD_CAT_ID": 27818,
        "ELEMENT_SET_NO": 999,
        "REV_AT_EPOCH": 12632,
        "BSTAR": 5.0824866e-05,
        "MEAN_MOTION_DOT": 6.2e-07,
        "MEAN_MOTION_DDOT": 0,
        "norad_id": 27818,
        "name": "COSMOS 2398",
        "group": "musson",
        "longitude_deg": NaN,
        "latitude_deg": NaN,
        "alt_km": NaN,
        "orbit_class": "HEO",
        "timestamp": "2025-11-30T07:29:52.897403+00:00"
      },
      "geometry": {
        "type": "Point",
        "coordinates": [
          NaN,
          NaN
        ]
      }
    },
    {
      "type": "Feature",
      "properties": {
        "OBJECT_NAME": "COSMOS 2429",
        "OBJECT_ID": "2007-038A",
        "EPOCH": "2025-11-29T18:27:28.603584",
        "MEAN_MOTION": 13.75147521,
        "ECCENTRICITY": 0.0039722,
        "INCLINATION": 82.9808,
        "RA_OF_ASC_NODE": 352.8714,
        "ARG_OF_PERICENTER": 73.0738,
        "MEAN_ANOMALY": 287.4767,
        "EPHEMERIS_TYPE": 0,
        "CLASSIFICATION_TYPE": "U",
        "NORAD_CAT_ID": 32052,
        "ELEMENT_SET_NO": 999,
        "REV_AT_EPOCH": 91424,
        "BSTAR": 5.8339e-05,
        "MEAN_MOTION_DOT": 7.2e-07,
        "MEAN_MOTION_DDOT": 0,
        "norad_id": 32052,
        "name": "COSMOS 2429",
        "group": "musson",
        "longitude_deg": NaN,
        "latitude_deg": NaN,
        "alt_km": NaN,
        "orbit_class": "HEO",
        "timestamp": "2025-11-30T07:29:52.897415+00:00"
      },
      "geometry": {
        "type": "Point",
        "coordinates": [
          NaN,
          NaN
        ]
      }
    },
    {
      "type": "Feature",
      "properties": {
        "OBJECT_NAME": "COSMOS 2454",
        "OBJECT_ID": "2009-039A",
        "EPOCH": "2025-11-29T20:29:30.823872",
        "MEAN_MOTION": 13.89926083,
        "ECCENTRICITY": 0.0020467,
        "INCLINATION": 82.9559,
        "RA_OF_ASC_NODE": 178.4127,
        "ARG_OF_PERICENTER": 108.15,
        "MEAN_ANOMALY": 263.2103,
        "EPHEMERIS_TYPE": 0,
        "CLASSIFICATION_TYPE": "U",
        "NORAD_CAT_ID": 35635,
        "ELEMENT_SET_NO": 999,
        "REV_AT_EPOCH": 82971,
        "BSTAR": 5.3505e-05,
        "MEAN_MOTION_DOT": 8.2e-07,
        "MEAN_MOTION_DDOT": 0,
        "norad_id": 35635,
        "name": "COSMOS 2454",
        "group": "musson",
        "longitude_deg": NaN,
        "latitude_deg": NaN,
        "alt_km": NaN,
        "orbit_class": "HEO",
        "timestamp": "2025-11-30T07:29:52.897421+00:00"
      },
      "geometry": {
        "type": "Point",
        "coordinates": [
          NaN,
          NaN
        ]
      }
    }
  ]
}